#aV2015  6  3  0  0  0.00000000     288 DD+AD WGS84 FIT  NGA
## 1847 259200.00000000   300.00000000 57176 0.0000000000000
+   31     1  2  3  4  5  6  7  9 10 11 12 13 14 15 16 17 18
+         19 20 21 22 23 24 25 26 27 28 29 30 31 32  0  0  0
+          0  0  0  0  0  0  0  0  0  0  0  0  0  0  0  0  0
+          0  0  0  0  0  0  0  0  0  0  0  0  0  0  0  0  0
+          0  0  0  0  0  0  0  0  0  0  0  0  0  0  0  0  0
++         2  2  2  2  2  2  2  2  2  2  2  2  2  2  2  2  2
++         2  2  2  2  2  2  2  2  2  2  2  2  2  2  0  0  0
++         0  0  0  0  0  0  0  0  0  0  0  0  0  0  0  0  0
++         0  0  0  0  0  0  0  0  0  0  0  0  0  0  0  0  0
++         0  0  0  0  0  0  0  0  0  0  0  0  0  0  0  0  0
%c cc cc ccc ccc cccc cccc cccc cccc ccccc ccccc ccccc ccccc
%c cc cc ccc ccc cccc cccc cccc cccc ccccc ccccc ccccc ccccc
%f  0.0000000  0.000000000  0.00000000000  0.000000000000000
%f  0.0000000  0.000000000  0.00000000000  0.000000000000000
%i    0    0    0    0      0      0      0      0         0
%i    0    0    0    0      0      0      0      0         0
/*      NGA, ST. LOUIS,MO.                                  
/*   EPHEMERIS COMPUTED FROM  1 DAYS OF DATA                
/*   EPOCHA SMOOTHER                                       
/* CCCCCCCCCCCCCCCCCCCCCCCCCCCCCCCCCCCCCCCCCCCCCCCCCCCCCCCCC
*  2015  6  3  5 35  0.00000000
P  1  -2410.050479  16776.964696 -20452.647049     -4.772654                    
V  1 -23994.568991   9811.487877  11090.526041      0.004888                    
P  2  20591.050666 -15355.715337   6113.083251    569.748081                    
V  2   8259.430198    -85.246775 -30283.376736      0.023457                    
P  3   8015.998520  19476.403799 -16145.110988    342.267683                    
V  3 -17938.362701 -10212.668190 -21241.107971      0.082388                    
P  4 -11612.584571  18254.088373 -15553.957348    -17.416725                    
V  4 -18491.909804   6186.469070  21783.116454     -0.016946                    
P  5  12054.441815 -10308.111879  21272.525890   -233.937979                    
V  5  22098.999326  15797.956622  -4671.524146      0.045416                    
P  6  24737.355797  -5383.375651  -8023.210419    175.730751                    
V  6  -8133.244216   6666.889127 -29548.791635      0.088952                    
P  7  12809.397843  10188.290837  21095.331328    466.286767                    
V  7 -24035.299812  11028.078161   8946.716041      0.024243                    
P  9   8022.916728  21149.089550  13901.122778   -165.533689                    
V  9  -3736.280322  17424.622936 -24356.763915     -0.051685                    
P 10  23312.398189   7103.654208  10663.956207   -177.431823                    
V 10   9789.412956  10397.896228 -26912.055318     -0.015175                    
P 11  -4851.467786  21714.464791 -14949.232918   -582.480834                    
V 11 -15424.242996  10511.336333  21156.546847     -0.025246                    
P 12  -4795.182218 -18884.718852 -18255.003045    298.266498                    
V 12  18613.425974  13239.797625 -18476.091494      0.031820                    
P 13  12564.416669 -19864.461544  12345.921428   -120.018795                    
V 13  -1253.144313  15899.648716  26434.761638     -0.033921                    
P 14 -14598.135665  -3392.043241 -21688.475365     58.828597                    
V 14   4641.057056 -27713.105790   1046.286233     -0.027850                    
P 15   3715.994466 -25862.738573   3596.828494   -252.821214                    
V 15   3713.274032   4892.161351  30897.091870     -0.021498                    
P 16 -12554.471432   8293.018132  21848.284438   -122.791732                    
V 16 -21553.704527 -17564.642298  -5336.246267      0.038517                    
P 17  14478.806334   3353.230175 -21727.230112   -174.162473                    
V 17  -3800.148278  27992.911783   1563.395707     -0.017656                    
P 18 -21521.187444 -15810.002666   1471.656330    406.387971                    
V 18   3108.354472  -2332.388382  30674.340406      0.029675                    
P 19  -8097.225296  24461.436091   5126.412754   -512.287769                    
V 19  -1585.638594  -7245.584765  31363.118563     -0.011069                    
P 20   3628.282671 -16000.398911  20727.141840    326.019005                    
V 20  23436.222379  13083.474167   6040.436382      0.036085                    
P 21 -15303.413960  -9349.483484  20395.037516   -451.877403                    
V 21  21493.706929 -11526.129116  10879.613690     -0.034363                    
P 22 -23671.957252  -7030.453747  -9774.134536    357.040548                    
V 22  -8635.108076 -10022.889908  27282.113703      0.041209                    
P 23   1171.012317  25850.768707   4973.341405   -112.421918                    
V 23  -4031.446685   5870.309995 -30916.827853     -0.024300                    
P 24   5305.474167 -17649.211167 -19110.467921    -49.315644                    
V 24  22489.219697  -9223.114921  14933.944915     -0.006025                    
P 25 -16437.462563 -18976.631722  -9022.414772    -35.744094                    
V 25  10304.922388   4894.259887 -29230.064406     -0.040251                    
P 26 -20096.744989    761.733722  17340.364869     30.578198                    
V 26 -17084.554005 -14029.250279 -19166.384871     -0.006420                    
P 27 -12109.457468  17939.200048  15297.410605     76.466920                    
V 27   -263.865865 -19582.586783  22841.528908      0.026931                    
P 28  22293.774057  12689.718628  -6434.107831    444.200361                    
V 28   5750.742069   7113.163605  30907.256563      0.025587                    
P 29  -5497.244865 -22681.470567  12750.604621    614.366852                    
V 29   4191.729423 -15674.961684 -26072.253031      0.022495                    
P 30  21545.181180   3343.535403  15204.142332    -50.056478                    
V 30 -17330.839431   8771.344579  22544.435738      0.061048                    
P 31 -25265.691801   7502.941545  -4415.295096    314.075961                    
V 31   4444.742551  -4122.215052 -31195.671533     -0.011521                    
P 32  -6247.144258  14736.379511 -21277.480633   -135.087357                    
V 32 -20910.913105 -17010.412770  -5109.829276      0.096804                    
EOF
